OBJECT_NAME,OBJECT_ID,EPOCH,MEAN_MOTION,ECCENTRICITY,INCLINATION,RA_OF_ASC_NODE,ARG_OF_PERICENTER,MEAN_ANOMALY,EPHEMERIS_TYPE,CLASSIFICATION_TYPE,NORAD_CAT_ID,ELEMENT_SET_NO,REV_AT_EPOCH,BSTAR,MEAN_MOTION_DOT,MEAN_MOTION_DDOT
2025-055B,2025-055B,2026-06-16T16:05:03.825888,15.11669313,.00372549,97.6511,308.5114,153.1056,207.2116,0,U,63292,999,6900,.38453549E-3,.6585E-4,0
2025-055C,2025-055C,2026-06-16T14:51:42.836256,15.10199594,.00437169,97.6516,308.3309,141.4035,219.0334,0,U,63293,999,6898,.38473051E-3,.6363E-4,0
2025-055D,2025-055D,2026-06-16T15:05:53.945376,15.16656568,.00162249,97.6522,307.4143,139.1773,221.0678,0,U,63294,999,6892,.35026401E-3,.6808E-4,0
2025-055E,2025-055E,2026-06-16T15:10:28.801056,15.16711696,.00147673,97.6509,307.3316,134.9418,225.3015,0,U,63295,999,6892,.34068941E-3,.6626E-4,0
2025-055F,2025-055F,2026-06-16T15:54:32.712768,15.16602712,.00129016,97.6533,307.4334,125.9689,234.2742,0,U,63296,999,6892,.374501E-3,.7264E-4,0
2025-055G,2025-055G,2026-06-16T15:48:57.148128,15.25342528,.00092253,97.6480,310.8124,151.4817,208.6926,0,U,63297,999,6915,.49890069E-3,.12526E-3,0
2025-055H,2025-055H,2026-06-16T15:20:40.448256,15.38633994,.00067816,97.6521,314.1547,149.1159,211.0486,0,U,63298,999,6936,.92631075E-3,.35405E-3,0
KINEIS-4E,2025-056A,2026-06-16T13:39:54.482976,14.72283531,.00025753,97.9040,291.4810,133.4078,226.7344,0,U,63300,999,6703,.21651045E-3,.132E-4,0
KINEIS-4C,2025-056B,2026-06-16T13:57:43.676928,14.72293202,.00028013,97.9093,291.7233,348.2111,11.9031,0,U,63301,999,6704,.2175753E-3,.1326E-4,0
KINEIS-4D,2025-056C,2026-06-16T14:05:00.949920,14.72346584,.00021652,97.9016,291.7247,15.0713,345.0559,0,U,63302,999,6704,.21787137E-3,.133E-4,0
KINEIS-4A,2025-056D,2026-06-16T14:53:29.003712,14.72362177,.00003186,97.9108,291.6798,335.7123,24.4069,0,U,63303,999,6704,.21420306E-3,.1307E-4,0
KINEIS-4B,2025-056E,2026-06-16T14:28:48.328032,14.72352566,.00042277,97.9120,291.7159,306.6638,53.4180,0,U,63304,999,6703,.21000037E-3,.128E-4,0
STARLINK-11568 [DTC],2025-057A,2026-06-16T13:50:17.172960,15.70870747,.00019404,42.9997,28.1444,292.8550,67.2113,0,U,63307,999,7273,.10771322E-2,.140303E-2,0
STARLINK-11575 [DTC],2025-057B,2026-06-15T21:41:21.014880,15.70902588,.0002295,43.0021,32.5753,263.5923,96.4683,0,U,63308,999,7262,.10074E-2,.131228E-2,0
STARLINK-11585 [DTC],2025-057C,2026-06-16T14:05:33.866592,15.70879513,.00026303,43.0021,28.2309,258.9257,101.1315,0,U,63309,999,7276,.10070128E-2,.131049E-2,0
STARLINK-11587 [DTC],2025-057D,2026-06-15T22:11:55.998816,15.70884377,.0001001,42.9954,32.7439,173.4193,186.6688,0,U,63310,999,7262,.1041E-2,.135579E-2,0
STARLINK-11589 [DTC],2025-057E,2026-06-16T07:28:55.524000,15.70927391,.00038895,42.9966,30.4868,277.1285,82.9140,0,U,63311,999,7268,.13033404E-2,.170938E-2,0
STARLINK-11650 [DTC],2025-057F,2026-06-15T14:20:10.398048,15.70846730,.00008998,42.9966,34.5827,329.5974,30.4841,0,U,63312,999,7260,.83222915E-3,.107761E-2,0
STARLINK-11648 [DTC],2025-057G,2026-06-15T21:56:38.537088,15.70891547,.0001071,42.9958,32.6576,182.2808,177.8055,0,U,63313,999,7262,.12023E-2,.157109E-2,0
STARLINK-11640 [DTC],2025-057H,2026-06-16T08:00:01.999872,15.70925330,.00017359,43.0011,30.0578,261.8389,340.7217,0,U,63314,999,595,-.14480831E-2,-.182896E-2,0
STARLINK-11652 [DTC],2025-057J,2026-06-16T08:14:36.465504,15.70926281,.0004436,43.0012,29.8464,268.2823,91.7537,0,U,63315,999,7272,.10693552E-2,.139649E-2,0
STARLINK-11645 [DTC],2025-057K,2026-06-15T22:04:17.220000,15.70906924,.0001689,42.9998,32.6998,252.1301,107.9382,0,U,63316,999,7265,.98314E-3,.128023E-2,0
STARLINK-11633 [DTC],2025-057L,2026-06-16T13:42:37.743552,15.70866805,.00025104,43.0016,28.1001,262.0991,97.9592,0,U,63317,999,7273,.11529276E-2,.150372E-2,0
STARLINK-11593 [DTC],2025-057M,2026-06-16T13:57:55.150848,15.70874799,.00022729,43.0012,28.1848,259.2614,100.7998,0,U,63318,999,7276,.1148275E-2,.1498E-2,0
STARLINK-11588 [DTC],2025-057N,2026-06-16T08:06:58.729536,15.70964459,.00019827,42.9993,29.8035,277.6960,82.3682,0,U,63319,999,7269,.1876565E-2,.248993E-2,0
STARLINK-33671,2025-057P,2026-06-15T12:41:59.088768,15.27599644,.00032636,43.0057,187.6745,283.4246,76.6242,0,U,63320,999,7086,.4281615E-3,.11546E-3,0
STARLINK-33650,2025-057Q,2026-06-16T09:09:28.715040,15.27590826,.00011025,43.0008,193.2700,270.1696,89.9030,0,U,63321,999,7083,.5139521E-3,.13912E-3,0
STARLINK-33689,2025-057R,2026-06-16T08:58:22.746432,15.27597366,.00029126,42.9866,193.2073,263.8580,96.1940,0,U,63322,999,7087,.36383666E-3,.9769E-4,0
STARLINK-33607,2025-057S,2026-06-15T19:22:24.899232,15.27602611,.0005114,43.0035,196.7071,268.3627,91.6639,0,U,63323,999,7074,.40997552E-3,.11046E-3,0
STARLINK-33619,2025-057T,2026-06-16T08:45:25.296768,15.27601791,.00005094,43.0027,193.1397,260.5767,99.5027,0,U,63324,999,7087,.50621212E-3,.13703E-3,0
