2025-055B               
1 63292U 25055B   26167.67018317  .00006585  00000+0  38454-3 0  9994
2 63292  97.6511 308.5114 0037254 153.1056 207.2116 15.11669313 69007
2025-055C               
1 63293U 25055C   26167.61924579  .00006363  00000+0  38473-3 0  9990
2 63293  97.6516 308.3309 0043716 141.4035 219.0334 15.10199594 68981
2025-055D               
1 63294U 25055D   26167.62909659  .00006808  00000+0  35026-3 0  9999
2 63294  97.6522 307.4143 0016224 139.1773 221.0678 15.16656568 68925
2025-055E               
1 63295U 25055E   26167.63227779  .00006626  00000+0  34069-3 0  9991
2 63295  97.6509 307.3316 0014767 134.9418 225.3015 15.16711696 68927
2025-055F               
1 63296U 25055F   26167.66287862  .00007264  00000+0  37450-3 0  9990
2 63296  97.6533 307.4334 0012901 125.9689 234.2742 15.16602712 68928
2025-055G               
1 63297U 25055G   26167.65899477  .00012526  00000+0  49890-3 0  9999
2 63297  97.6480 310.8124 0009225 151.4817 208.6926 15.25342528 69158
2025-055H               
1 63298U 25055H   26167.63935704  .00035405  00000+0  92631-3 0  9994
2 63298  97.6521 314.1547 0006781 149.1159 211.0486 15.38633994 69364
KINEIS-4E               
1 63300U 25056A   26167.56938059  .00001320  00000+0  21651-3 0  9990
2 63300  97.9040 291.4810 0002575 133.4078 226.7344 14.72283531 67033
KINEIS-4C               
1 63301U 25056B   26167.58175552  .00001326  00000+0  21758-3 0  9998
2 63301  97.9093 291.7233 0002801 348.2111  11.9031 14.72293202 67044
KINEIS-4D               
1 63302U 25056C   26167.58681655  .00001330  00000+0  21787-3 0  9992
2 63302  97.9016 291.7247 0002165  15.0713 345.0559 14.72346584 67043
KINEIS-4A               
1 63303U 25056D   26167.62047458  .00001307  00000+0  21420-3 0  9993
2 63303  97.9108 291.6798 0000318 335.7123  24.4069 14.72362177 67041
KINEIS-4B               
1 63304U 25056E   26167.60333713  .00001280  00000+0  21000-3 0  9998
2 63304  97.9120 291.7159 0004227 306.6638  53.4180 14.72352566 67035
STARLINK-11568 [DTC]    
1 63307U 25057A   26167.57658765  .00140303  00000+0  10771-2 0  9997
2 63307  42.9997  28.1444 0001940 292.8550  67.2113 15.70870747 72734
STARLINK-11575 [DTC]    
1 63308U 25057B   26166.90371545  .00131228  00000+0  10074-2 0  9994
2 63308  43.0021  32.5753 0002295 263.5923  96.4683 15.70902588 72623
STARLINK-11585 [DTC]    
1 63309U 25057C   26167.58719753  .00131049  00000+0  10070-2 0  9994
2 63309  43.0021  28.2309 0002630 258.9257 101.1315 15.70879513 72766
STARLINK-11587 [DTC]    
1 63310U 25057D   26166.92495369  .00135579  00000+0  10410-2 0  9997
2 63310  42.9954  32.7439 0001001 173.4193 186.6688 15.70884377 72626
STARLINK-11589 [DTC]    
1 63311U 25057E   26167.31175375  .00170938  00000+0  13033-2 0  9996
2 63311  42.9966  30.4868 0003889 277.1285  82.9140 15.70927391 72682
STARLINK-11650 [DTC]    
1 63312U 25057F   26166.59734257  .00107761  00000+0  83223-3 0  9999
2 63312  42.9966  34.5827 0000899 329.5974  30.4841 15.70846730 72603
STARLINK-11648 [DTC]    
1 63313U 25057G   26166.91433492  .00157109  00000+0  12023-2 0  9993
2 63313  42.9958  32.6576 0001071 182.2808 177.8055 15.70891547 72629
STARLINK-11640 [DTC]    
1 63314U 25057H   26167.33335648 -.00182896  00000+0 -14481-2 0  9998
2 63314  43.0011  30.0578 0001735 261.8389 340.7217 15.70925330  5952
STARLINK-11652 [DTC]    
1 63315U 25057J   26167.34347761  .00139649  00000+0  10694-2 0  9997
2 63315  43.0012  29.8464 0004436 268.2823  91.7537 15.70926281 72722
STARLINK-11645 [DTC]    
1 63316U 25057K   26166.91964375  .00128023  00000+0  98314-3 0  9996
2 63316  42.9998  32.6998 0001689 252.1301 107.9382 15.70906924 72650
STARLINK-11633 [DTC]    
1 63317U 25057L   26167.57127018  .00150372  00000+0  11529-2 0  9999
2 63317  43.0016  28.1001 0002510 262.0991  97.9592 15.70866805 72731
STARLINK-11593 [DTC]    
1 63318U 25057M   26167.58188832  .00149800  00000+0  11483-2 0  9995
2 63318  43.0012  28.1848 0002272 259.2614 100.7998 15.70874799 72769
STARLINK-11588 [DTC]    
1 63319U 25057N   26167.33817974  .00248993  00000+0  18766-2 0  9999
2 63319  42.9993  29.8035 0001982 277.6960  82.3682 15.70964459 72697
STARLINK-33671          
1 63320U 25057P   26166.52915612  .00011546  00000+0  42816-3 0  9995
2 63320  43.0057 187.6745 0003263 283.4246  76.6242 15.27599644 70866
STARLINK-33650          
1 63321U 25057Q   26167.38158235  .00013912  00000+0  51395-3 0  9992
2 63321  43.0008 193.2700 0001102 270.1696  89.9030 15.27590826 70831
STARLINK-33689          
1 63322U 25057R   26167.37387438  .00009769  00000+0  36384-3 0  9997
2 63322  42.9866 193.2073 0002912 263.8580  96.1940 15.27597366 70876
STARLINK-33607          
1 63323U 25057S   26166.80723263  .00011046  00000+0  40998-3 0  9992
2 63323  43.0035 196.7071 0005114 268.3627  91.6639 15.27602611 70743
STARLINK-33619          
1 63324U 25057T   26167.36487612  .00013703  00000+0  50621-3 0  9996
2 63324  43.0027 193.1397 0000509 260.5767  99.5027 15.27601791 70879
